OBJECT_NAME,OBJECT_ID,EPOCH,MEAN_MOTION,ECCENTRICITY,INCLINATION,RA_OF_ASC_NODE,ARG_OF_PERICENTER,MEAN_ANOMALY,EPHEMERIS_TYPE,CLASSIFICATION_TYPE,NORAD_CAT_ID,ELEMENT_SET_NO,REV_AT_EPOCH,BSTAR,MEAN_MOTION_DOT,MEAN_MOTION_DDOT
EYESAT A (AO-27),1993-061C,2026-07-15T04:17:54.684096,14.30949052,.0008763,98.6868,263.5806,25.9041,334.2579,0,U,22825,999,71100,.31758946E-4,.39E-6,0
ITAMSAT (IO-26),1993-061D,2026-07-15T03:36:13.983840,14.31376655,.00089683,98.6816,263.4720,9.5131,350.6220,0,U,22826,999,71131,.32789198E-4,.42E-6,0
RADIO ROSTO (RS15),1994-085A,2026-07-15T11:54:56.652192,11.27583515,.01569269,64.8150,257.4334,358.6554,1.3929,0,U,23439,999,29909,.70626508E-4,-.4E-6,0
JAS-2 (FO-29),1996-046B,2026-07-15T13:16:59.868480,13.53275706,.03503455,98.5219,41.5371,23.0121,338.6291,0,U,24278,999,47700,.39317211E-4,.4E-7,0
FORTE,1997-047A,2026-07-15T12:50:00.935520,14.27955516,.00243432,69.9546,309.9904,243.0244,116.8393,0,U,24920,999,50273,.51570751E-4,.7E-6,0
TECHSAT 1B (GO-32),1998-043D,2026-07-15T12:18:21.743424,14.24433411,.00021905,99.0085,189.9879,113.9012,246.2396,0,U,25397,999,45536,.2182922E-4,.4E-7,0
ISS (ZARYA),1998-067A,2026-07-15T09:06:13.253184,15.49014944,.00067175,51.6310,160.5727,298.6245,61.4067,0,U,25544,999,57612,.77082068E-4,.3801E-4,0
IMAGE,2000-017A,2026-07-10T09:33:22.635360,1.68666826,.74160542,94.2468,315.6762,285.1805,9.7435,0,U,26113,999,16189,0,-.42E-6,0
CLUSTER II-FM7 (SAMBA),2000-041A,2026-07-11T16:19:30.897408,0.44896530,.90823116,149.8437,55.3938,272.8334,359.6328,0,U,26410,999,2042,0,.12833E-3,0
CLUSTER II-FM8 (TANGO),2000-045B,2026-07-14T10:49:09.907104,0.44416740,.9090382,150.0346,57.1658,274.4944,1.9905,0,U,26464,999,2043,0,.19808E-3,0
ODIN,2001-007A,2026-07-15T02:49:01.855776,15.89461170,.00050031,97.3728,239.0985,152.5421,207.6117,0,U,26702,999,39381,.92766465E-3,.26805E-2,.2811748E-4
OMNI-M1,2001-026A,2026-07-15T12:15:20.524608,3.92402085,.00135289,44.8240,238.7352,57.8922,302.2996,0,U,26857,999,20668,0,.4E-7,0
PCSAT (NO-44),2001-043C,2026-07-15T09:02:31.958592,14.31965034,.00059195,67.0495,171.3598,266.6362,93.4063,0,U,26931,999,29448,.34417983E-4,.9E-7,0
PROBA-1,2001-049B,2026-07-15T14:39:50.598720,15.07617172,.00557722,97.9599,206.1376,28.4548,331.9704,0,U,26958,999,34790,.80448073E-4,.1196E-4,0
SAUDISAT 1C (SO-50),2002-058C,2026-07-15T00:06:13.953024,14.83098196,.00745369,64.5518,42.9159,257.3021,101.9746,0,U,27607,999,26858,.62403941E-4,.376E-5,0
CORIOLIS,2003-001A,2026-07-15T12:34:39.290304,14.19951908,.00149351,98.7135,202.9767,128.3280,231.9242,0,U,27640,999,21824,.38040389E-4,.37E-6,0
CUTE-1 (CO-55),2003-031E,2026-07-15T11:41:55.959936,14.24351670,.00108365,98.6744,204.6909,101.9513,258.2882,0,U,27844,999,19570,.76487103E-4,.133E-5,0
CUBESAT XI-IV (CO-57),2003-031J,2026-07-15T11:45:47.733120,14.23634657,.0010557,98.6774,204.3834,118.6468,241.5773,0,U,27848,999,19540,.68039381E-4,.112E-5,0
MOZHAETS 4 (RS22),2003-042A,2026-07-15T14:27:47.331360,14.73513794,.0011257,98.3468,21.7656,171.9727,278.6707,0,U,27939,999,21973,.28141951E-4,.129E-5,0
